#aV2021 12  5  0  0  0.00000000     288 DD+AD WGS84 FIT  NGA
## 2187      0.00000000   300.00000000 59553 0.0000000000000
+   32     1  2  3  4  5  6  7  8  9 10 11 12 13 14 15 16 17
+         18 19 20 21 22 23 24 25 26 27 28 29 30 31 32  0  0
+          0  0  0  0  0  0  0  0  0  0  0  0  0  0  0  0  0
+          0  0  0  0  0  0  0  0  0  0  0  0  0  0  0  0  0
+          0  0  0  0  0  0  0  0  0  0  0  0  0  0  0  0  0
++         2  2  2  2  2  2  2  2  2  2  2  2  2  2  2  2  2
++         2  2  2  2  2  2  2  2  2  2  2  2  2  2  2  0  0
++         0  0  0  0  0  0  0  0  0  0  0  0  0  0  0  0  0
++         0  0  0  0  0  0  0  0  0  0  0  0  0  0  0  0  0
++         0  0  0  0  0  0  0  0  0  0  0  0  0  0  0  0  0
%c cc cc ccc ccc cccc cccc cccc cccc ccccc ccccc ccccc ccccc
%c cc cc ccc ccc cccc cccc cccc cccc ccccc ccccc ccccc ccccc
%f  0.0000000  0.000000000  0.00000000000  0.000000000000000
%f  0.0000000  0.000000000  0.00000000000  0.000000000000000
%i    0    0    0    0      0      0      0      0         0
%i    0    0    0    0      0      0      0      0         0
/*      NGA, ST. LOUIS,MO.                                  
/*   EPHEMERIS COMPUTED FROM 2 DAYS OF DATA                 
/*   EPOCHA v7 SMOOTHER                                     
/*   G2139 IERS2010 SATIGS SATAPC                           
*  2021 12  5 23 25  0.00000000
P  1   6388.076062 -17912.618047 -18667.389363    491.884468                    
V  1  20713.191217 -10518.260113  17766.338474     -0.102552                    
P  2 -21353.612420  15874.264548   1145.840225   -644.662987                    
V  2  -2025.764350  -1757.364719 -31741.120439     -0.013485                    
P  3  -3902.152505 -17596.223614 -19647.763191    -32.646343                    
V  3  21985.466306  11212.631486 -14386.907700     -0.114581                    
P  4    559.775355 -26512.591891    105.694369   -199.966645                    
V  4   2904.789730    -64.901963 -31794.530471      0.011762                    
P  5 -12043.257335  10457.893425  21096.124232    -63.418300                    
V  5 -23883.502455 -12926.932321  -7022.699119     -0.012892                    
P  6 -22827.026939   3266.891953 -13164.988648    135.214445                    
V  6  13653.764756  -9855.606585 -25926.797157      0.097857                    
P  7 -10464.132802 -11861.518406  21747.378983    287.257444                    
V  7  23054.161003 -13530.368039   3289.389457      0.047966                    
P  8   6953.509391 -22955.713151  11024.045904    -46.946803                    
V  8   2980.447139  14045.998872  27657.393224     -0.014969                    
P  9  -8260.000571 -22805.302031  10712.383336   -360.926250                    
V  9   2307.432824 -13809.608926 -27457.304304      0.005843                    
P 10  23964.170956  11549.060560  -2401.760842   -261.935732                    
V 10   1687.029796   3487.061197  31610.780966     -0.087877                    
P 11 -23810.076384  11732.121088   -699.820024     15.216598                    
V 11   -504.441572  -2902.735046 -31764.036360     -0.028090                    
P 12    748.336341  17257.933788 -20468.037128   -136.501707                    
V 12 -21590.177222 -13311.428941 -12032.488999     -0.055807                    
P 13 -12854.218355  17113.122474  15472.944010    225.056011                    
V 13    497.405815 -20064.074918  22531.398142      0.057513                    
P 14 -23379.468424 -12428.838578  -2464.276490    -50.370341                    
V 14  -1110.751907  -4141.438650  31384.107246     -0.063859                    
P 15  -4256.952608  23939.359387   9888.726404   -101.325111                    
V 15  -5454.505238 -12692.551036  27603.740115      0.028265                    
P 16  15657.381939  -6143.705924  20414.861306   -435.692798                    
V 16  21298.205670  15525.260587 -11070.481765     -0.061437                    
P 17 -12674.140860 -11658.185035 -19773.606438    543.424502                    
V 17   2371.238546 -25953.553205  13512.672892      0.052302                    
P 18  10718.979785  11002.041828  21672.684283    284.434875                    
V 18 -23793.127093  13772.503028   4677.129320     -0.063757                    
P 19 -14779.364991  -2302.756989 -22213.785108     88.383511                    
V 19   2633.688790 -27387.081914    933.400582      0.049948                    
P 20 -20677.561296   4538.765417  15864.393626    517.782222                    
V 20 -18140.438880  -9514.653941 -21161.672479     -0.001815                    
P 21  14205.282734 -19019.449299 -10601.741092    152.964901                    
V 21  13834.063866  -5864.207928  27891.163390      0.010126                    
P 22   4567.304911 -15019.152611 -21262.416741   -448.299626                    
V 22  25286.696503  10756.855246  -1941.106826      0.090107                    
P 23  18909.811978  16650.890014   8526.538571     25.086830                    
V 23 -10667.220712  -2972.868420  29311.139912     -0.042207                    
P 24  -9275.225927  19903.846067 -14929.803472    272.922497                    
V 24 -16957.044184   8386.208283  22548.993977      0.025889                    
P 25  12683.880314  18692.408789 -14461.793623    251.324468                    
V 25 -16463.323026  -7015.363781 -23681.979427      0.058044                    
P 26  23906.534784   2506.568363  11553.886474    162.179826                    
V 26  11940.715538   9012.792188 -26206.542588      0.037087                    
P 27  12267.069260 -14420.141108  18280.776838   -227.556178                    
V 27   1829.678136  23681.624341  17648.189129     -0.045024                    
P 28 -23112.704924  -8306.333251  -9289.495685    449.005125                    
V 28  -8903.322148  -9304.128848  29035.020155     -0.076302                    
P 29   3360.573003  25230.826960   7445.065033   -450.058239                    
V 29  -2668.693511   9350.072840 -30369.899999     -0.050903                    
P 30 -19211.908919  -4374.122790  17983.485548   -497.027857                    
V 30  18891.867895 -12707.686322  16917.218942     -0.030092                    
P 31  24053.187917  -4520.888155 -10999.949298   -153.610802                    
V 31 -10840.528371   8570.458416 -27049.104299     -0.018738                    
P 32  14801.331625   6979.094511 -20839.224780    -31.108369                    
V 32   -258.503200  26710.799351   8531.304551     -0.052058                    
EOF
